{
    "links": {
        "self": "http://www.neowsapp.com/rest/v1/neo/3252103?api_key=iIulBulltgU6a56xZRHN4H3l9WmuAYTsLGpBGhQ2"
    },
    "id": "3252103",
    "neo_reference_id": "3252103",
    "name": "(2004 RN111)",
    "designation": "2004 RN111",
    "nasa_jpl_url": "http://ssd.jpl.nasa.gov/sbdb.cgi?sstr=3252103",
    "absolute_magnitude_h": 25.0,
    "estimated_diameter": {
        "kilometers": {
            "estimated_diameter_min": 0.02658,
            "estimated_diameter_max": 0.0594346868
        },
        "meters": {
            "estimated_diameter_min": 26.58,
            "estimated_diameter_max": 59.4346868419
        },
        "miles": {
            "estimated_diameter_min": 0.0165160412,
            "estimated_diameter_max": 0.0369309908
        },
        "feet": {
            "estimated_diameter_min": 87.2047272,
            "estimated_diameter_max": 194.9956979785
        }
    },
    "is_potentially_hazardous_asteroid": false,
    "close_approach_data": [
        {
            "close_approach_date": "2004-09-09",
            "close_approach_date_full": "2004-Sep-09 10:41",
            "epoch_date_close_approach": 1094726460000,
            "relative_velocity": {
                "kilometers_per_second": "9.6872807223",
                "kilometers_per_hour": "34874.2106004305",
                "miles_per_hour": "21669.4782478064"
            },
            "miss_distance": {
                "astronomical": "0.0379533668",
                "lunar": "14.7638596852",
                "kilometers": "5677742.832608716",
                "miles": "3527985.8013076408"
            },
            "orbiting_body": "Earth"
        }
    ],
    "orbital_data": {
        "orbit_id": "10",
        "orbit_determination_date": "2017-04-06 09:12:19",
        "first_observation_date": "2004-09-12",
        "last_observation_date": "2004-09-17",
        "data_arc_in_days": 5,
        "observations_used": 46,
        "orbit_uncertainty": "8",
        "minimum_orbit_intersection": ".0343782",
        "jupiter_tisserand_invariant": "4.136",
        "epoch_osculation": "2453263.5",
        "eccentricity": ".393399699369248",
        "semi_major_axis": "1.667373465070239",
        "inclination": "12.60412458776053",
        "ascending_node_longitude": "349.8467267501958",
        "orbital_period": "786.4076969872118",
        "perihelion_distance": "1.011429245175346",
        "perihelion_argument": "331.3233545770497",
        "aphelion_distance": "2.323317684965133",
        "perihelion_time": "2453235.758405807525",
        "mean_anomaly": "12.69948647190492",
        "mean_motion": ".4577778185274478",
        "equinox": "J2000",
        "orbit_class": {
            "orbit_class_type": "APO",
            "orbit_class_description": "Near-Earth asteroid orbits which cross the Earth’s orbit similar to that of 1862 Apollo",
            "orbit_class_range": "a (semi-major axis) > 1.0 AU; q (perihelion) < 1.017 AU"
        }
    },
    "is_sentry_object": false
}